{
  "norad_id": 55135,
  "name": "2023-003C",
  "history": [
    {
      "epoch": "2026-03-28T21:55:48.439776Z",
      "apogee_km": 413.68500119353394,
      "perigee_km": 407.3612285233421,
      "latitude_deg": 3.3534022620774334e-05,
      "longitude_deg": 9.308189366626122,
      "height_km": 413.11057964302785,
      "semi_major_axis_km": 6788.660114858438,
      "eccentricity": 0.00046576,
      "inclination_deg": 97.1573,
      "raan_deg": 164.5874,
      "arg_perigee_deg": 80.074,
      "mean_anomaly_deg": 280.1039,
      "mean_motion_rev_day": 15.52124891
    },
    {
      "epoch": "2026-03-29T04:07:09.287328Z",
      "apogee_km": 413.6204222228307,
      "perigee_km": 407.3314511982617,
      "latitude_deg": 2.365928201343495e-05,
      "longitude_deg": -83.5259524506837,
      "height_km": 413.00265147015597,
      "semi_major_axis_km": 6788.612936710546,
      "eccentricity": 0.0004632,
      "inclination_deg": 97.1573,
      "raan_deg": 164.8443,
      "arg_perigee_deg": 78.8907,
      "mean_anomaly_deg": 281.2867,
      "mean_motion_rev_day": 15.52141071
    },
    {
      "epoch": "2026-03-30T04:52:30.230688Z",
      "apogee_km": 413.37403083680783,
      "perigee_km": 407.1857100177276,
      "latitude_deg": -5.675209338440554e-06,
      "longitude_deg": -94.85229743444962,
      "height_km": 412.67255273039297,
      "semi_major_axis_km": 6788.416870427268,
      "eccentricity": 0.0004558,
      "inclination_deg": 97.1573,
      "raan_deg": 165.8719,
      "arg_perigee_deg": 76.1586,
      "mean_anomaly_deg": 284.0174,
      "mean_motion_rev_day": 15.52208316
    },
    {
      "epoch": "2026-03-30T06:25:20.161344Z",
      "apogee_km": 413.3597591725902,
      "perigee_km": 407.1757939573299,
      "latitude_deg": 6.141783585512672e-05,
      "longitude_deg": -118.05959150572929,
      "height_km": 412.6534356431664,
      "semi_major_axis_km": 6788.404776564959,
      "eccentricity": 0.00045548,
      "inclination_deg": 97.1573,
      "raan_deg": 165.9362,
      "arg_perigee_deg": 76.0145,
      "mean_anomaly_deg": 284.1615,
      "mean_motion_rev_day": 15.52212464
    },
    {
      "epoch": "2026-03-30T14:09:29.641824Z",
      "apogee_km": 413.27373277767856,
      "perigee_km": 407.1548486912361,
      "latitude_deg": -1.368879946257655e-05,
      "longitude_deg": 125.90421137820854,
      "height_km": 412.586236387548,
      "semi_major_axis_km": 6788.351290734457,
      "eccentricity": 0.00045069,
      "inclination_deg": 97.1573,
      "raan_deg": 166.2572,
      "arg_perigee_deg": 75.5948,
      "mean_anomaly_deg": 284.5805,
      "mean_motion_rev_day": 15.52230809
    },
    {
      "epoch": "2026-03-30T21:53:38.772384Z",
      "apogee_km": 413.2138406628328,
      "perigee_km": 407.09473912829526,
      "latitude_deg": 6.040547824955991e-05,
      "longitude_deg": 9.869957622944055,
      "height_km": 412.4653119263484,
      "semi_major_axis_km": 6788.291289895564,
      "eccentricity": 0.00045071,
      "inclination_deg": 97.1573,
      "raan_deg": 166.5787,
      "arg_perigee_deg": 74.4132,
      "mean_anomaly_deg": 285.7619,
      "mean_motion_rev_day": 15.52251389
    },
    {
      "epoch": "2026-03-31T21:06:04.238208Z",
      "apogee_km": 412.9959002156975,
      "perigee_km": 407.00197618226775,
      "latitude_deg": -2.7139946940194933e-05,
      "longitude_deg": 21.774181634262614,
      "height_km": 412.1919498191396,
      "semi_major_axis_km": 6788.135938198982,
      "eccentricity": 0.0004415,
      "inclination_deg": 97.1572,
      "raan_deg": 167.5421,
      "arg_perigee_deg": 71.711,
      "mean_anomaly_deg": 288.4623,
      "mean_motion_rev_day": 15.52304676
    },
    {
      "epoch": "2026-04-01T20:18:26.799264Z",
      "apogee_km": 412.7922925723915,
      "perigee_km": 406.91932119587545,
      "latitude_deg": -5.0114349286879166e-05,
      "longitude_deg": 33.6903337967971,
      "height_km": 411.9497422831639,
      "semi_major_axis_km": 6787.992806884134,
      "eccentricity": 0.0004326,
      "inclination_deg": 97.157,
      "raan_deg": 168.5053,
      "arg_perigee_deg": 69.2597,
      "mean_anomaly_deg": 290.9119,
      "mean_motion_rev_day": 15.52353774
    },
    {
      "epoch": "2026-04-02T21:03:35.413344Z",
      "apogee_km": 412.5051925428852,
      "perigee_km": 406.75188247329334,
      "latitude_deg": -2.4713850652708624e-05,
      "longitude_deg": 22.41489477641479,
      "height_km": 411.58861938186806,
      "semi_major_axis_km": 6787.7655375080885,
      "eccentricity": 0.0004238,
      "inclination_deg": 97.1567,
      "raan_deg": 169.5323,
      "arg_perigee_deg": 65.9094,
      "mean_anomaly_deg": 294.2602,
      "mean_motion_rev_day": 15.52431739
    },
    {
      "epoch": "2026-04-02T22:36:24.550848Z",
      "apogee_km": 412.52150396172783,
      "perigee_km": 406.7311345845883,
      "latitude_deg": 2.8778487138725135e-05,
      "longitude_deg": -0.7888837771672258,
      "height_km": 411.54777882889255,
      "semi_major_axis_km": 6787.763319273158,
      "eccentricity": 0.00042653,
      "inclination_deg": 97.1566,
      "raan_deg": 169.5968,
      "arg_perigee_deg": 65.2348,
      "mean_anomaly_deg": 294.9349,
      "mean_motion_rev_day": 15.524325
    },
    {
      "epoch": "2026-04-03T20:15:50.372928Z",
      "apogee_km": 412.2245534292915,
      "perigee_km": 406.59631909514155,
      "latitude_deg": 1.7948580550081202e-05,
      "longitude_deg": 34.363997069764324,
      "height_km": 411.2627964537259,
      "semi_major_axis_km": 6787.547436262216,
      "eccentricity": 0.0004146,
      "inclination_deg": 97.1564,
      "raan_deg": 170.4967,
      "arg_perigee_deg": 62.891,
      "mean_anomaly_deg": 297.2766,
      "mean_motion_rev_day": 15.52506565
    }
  ]
}